{"type": "FeatureCollection", "features": [{"type": "Feature", "properties": {"@id": "relation/313474", "name": "Sungai Brantas", "name:en": "Brantas River", "name:ja": "\u30d6\u30e9\u30f3\u30bf\u30b9\u5ddd", "name:uk": "\u0411\u0440\u0430\u043d\u0442\u0430\u0441", "type": "waterway", "waterway": "river", "wikidata": "Q2570778"}, "geometry": {"type": "MultiLineString", "coordinates": [[[112.6455632, -7.9944369], [112.6451989, -7.9949897], [112.6450059, -7.9951305], [112.6447576, -7.9952584], [112.6442596, -7.9952712], [112.6440767, -7.9953256], [112.6439544, -7.9954371], [112.6439262, -7.9955403], [112.6439644, -7.9957204], [112.6441409, -7.9960218], [112.6441695, -7.9961244], [112.6441673, -7.996238], [112.6440989, -7.9963668], [112.6440077, -7.9964523], [112.6437462, -7.996694], [112.6435113, -7.996772], [112.6433281, -7.9967624], [112.6431512, -7.9967385], [112.6427338, -7.9966291], [112.6422891, -7.9964639], [112.6420175, -7.9963757], [112.6418692, -7.9963736], [112.6416902, -7.996393], [112.6414544, -7.9965086], [112.641324, -7.9966661], [112.6412115, -7.9968765], [112.6410505, -7.9972188], [112.6409535, -7.9974109], [112.640836, -7.9975777], [112.6407351, -7.9977058], [112.6405974, -7.9977938], [112.6404837, -7.9978019], [112.6403178, -7.9977397], [112.6401462, -7.9975485], [112.6399422, -7.9973891], [112.6396207, -7.9973014], [112.639405, -7.9972777], [112.6391805, -7.9972883], [112.6388955, -7.997282], [112.6386377, -7.9972222], [112.6383926, -7.9971226], [112.6381398, -7.9969642], [112.6375673, -7.9965844], [112.6373736, -7.99657], [112.6372471, -7.9966636], [112.6371794, -7.9968059], [112.6371635, -7.9970279], [112.6372015, -7.9973017], [112.6372508, -7.9975148], [112.6373718, -7.9978213], [112.6375941, -7.9985511], [112.6378224, -7.9992912], [112.6380736, -7.9999093], [112.6382009, -7.999978], [112.6382951, -8.0001095], [112.6382476, -8.0004543], [112.637876, -8.0006395], [112.6376118, -8.000763], [112.637225, -8.000938], [112.6370427, -8.0012269], [112.6368341, -8.0014663], [112.636553, -8.0016637], [112.6362859, -8.0018911], [112.6360187, -8.0020612], [112.6357135, -8.0022907], [112.6353932, -8.0022126], [112.6350074, -8.0021482], [112.6347977, -8.0022027], [112.6346169, -8.0023514], [112.6345093, -8.0026554], [112.6344774, -8.0027559], [112.634409, -8.0028214], [112.6342606, -8.0029867], [112.6338697, -8.0033601], [112.6336547, -8.0036186], [112.6335128, -8.0039397], [112.6332923, -8.0042241], [112.633079, -8.0043526], [112.6328398, -8.0044437], [112.6326665, -8.0045251], [112.6324667, -8.0045682], [112.6322275, -8.004536], [112.632006, -8.0044469], [112.6318173, -8.0043329], [112.6316274, -8.0042419], [112.6314974, -8.004228], [112.6313646, -8.0042449], [112.6311886, -8.0043089], [112.6310254, -8.0043901], [112.6309769, -8.0045338], [112.6309829, -8.0047405], [112.6310188, -8.0048899], [112.6310982, -8.005034], [112.6313195, -8.005291], [112.6314247, -8.0054927], [112.6314879, -8.005708], [112.6314732, -8.0058488], [112.6314128, -8.0059843], [112.6313276, -8.0061546], [112.6312093, -8.0062997], [112.6311166, -8.0064359], [112.6311112, -8.0065719], [112.6311323, -8.0069142], [112.6311313, -8.0072419], [112.6313572, -8.0084491], [112.6314582, -8.009199], [112.6316096, -8.0097793], [112.6319473, -8.0102412], [112.6321537, -8.0108791], [112.6321031, -8.011563], [112.6318742, -8.0120082], [112.6317132, -8.0125288], [112.631724, -8.0130068], [112.6318634, -8.0136762], [112.631842, -8.0140055], [112.6317321, -8.0143843], [112.6316918, -8.014866], [112.6317132, -8.0160347], [112.6316167, -8.0167784], [112.6316628, -8.0173175], [112.6318559, -8.0178169], [112.6320061, -8.0182737], [112.632196, -8.0188182], [112.6325501, -8.0192962], [112.633079, -8.0197398], [112.6335049, -8.0202418], [112.6336369, -8.0206216], [112.6334942, -8.0209961], [112.6333977, -8.0212723], [112.6334191, -8.0216229], [112.6334438, -8.022162], [112.6331436, -8.0229681], [112.6327003, -8.0238326], [112.6322926, -8.0243851], [112.6318023, -8.0252217], [112.6313946, -8.0259441], [112.6307047, -8.0265417], [112.630297, -8.0268498], [112.6300932, -8.0272747], [112.6300395, -8.0277209], [112.6297745, -8.0283557], [112.6295138, -8.0288258], [112.6292885, -8.0292826], [112.6292778, -8.0294579], [112.6292671, -8.0296332], [112.6293314, -8.0298988], [112.6293743, -8.0301962], [112.6293422, -8.0306743], [112.6292027, -8.0318004], [112.6291276, -8.032406], [112.6292671, -8.0329796], [112.629149, -8.0335214], [112.629149, -8.033872], [112.6293529, -8.034127], [112.6303936, -8.0346157], [112.6307047, -8.0349131], [112.6308764, -8.0351575], [112.6308335, -8.0354762], [112.6308227, -8.0359436], [112.6309547, -8.0363871], [112.6311661, -8.0370484], [112.6313099, -8.0379524], [112.6313661, -8.0383258], [112.6313592, -8.0387163], [112.6312419, -8.0394358], [112.6310393, -8.0408361], [112.6309477, -8.0414123], [112.6310219, -8.0417488], [112.631327, -8.0427107], [112.6315877, -8.0435154], [112.6316489, -8.0439961], [112.6315523, -8.0445804], [112.6315416, -8.0453878], [112.6314879, -8.0462058], [112.6311768, -8.0470769], [112.6307262, -8.0477992], [112.6301039, -8.0486172], [112.6298035, -8.0491696], [112.629825, -8.0495839], [112.6298067, -8.0502718], [112.6295707, -8.0509304], [112.6289774, -8.0517935], [112.6284409, -8.0528027], [112.6281727, -8.0532808], [112.6282693, -8.0539606], [112.6284356, -8.0551053], [112.628575, -8.0555885], [112.6286373, -8.055902], [112.6289377, -8.0560826], [112.629192, -8.0564889], [112.6296318, -8.0570413], [112.629943, -8.0577849], [112.630311, -8.0585896], [112.6306618, -8.0592827], [112.6311231, -8.0598245], [112.6313485, -8.060823], [112.631445, -8.0620447], [112.6313624, -8.0627219], [112.6310695, -8.0633194], [112.6308013, -8.0637443], [112.630694, -8.0641798], [112.6305363, -8.0646977], [112.6303171, -8.0650091], [112.6299419, -8.0654783], [112.6297938, -8.065752], [112.6296852, -8.0662114], [112.6295667, -8.0668663], [112.6292607, -8.0673453], [112.6291323, -8.067795], [112.6292212, -8.0681078], [112.6298037, -8.0686258], [112.6301394, -8.0687725], [112.6303171, -8.069095], [112.6302776, -8.0696815], [112.6301394, -8.0698477], [112.6296951, -8.0699161], [112.6292409, -8.0698673], [112.629083, -8.070141], [112.6291422, -8.0736502], [112.6289448, -8.0739728], [112.6285795, -8.0742171], [112.6284413, -8.0744126], [112.6284215, -8.0747254], [112.6285795, -8.0751066], [112.6288065, -8.0754879], [112.6287671, -8.0757713], [112.6284116, -8.0761428], [112.6283623, -8.0764458], [112.6284456, -8.0766879], [112.6285872, -8.0769379], [112.6287514, -8.0771606], [112.6288593, -8.0774063], [112.6288587, -8.0776918], [112.6287668, -8.0779915], [112.6285583, -8.0783132], [112.6282999, -8.0788001], [112.6281528, -8.0792641], [112.6282635, -8.0806392], [112.628224, -8.0809813], [112.6276712, -8.0813039], [112.6268616, -8.0816362], [112.6264371, -8.0820174], [112.6261113, -8.0823791], [112.6258348, -8.0829069], [112.6254992, -8.0831611], [112.6244823, -8.083728], [112.6227841, -8.0848032], [112.620543, -8.0860739], [112.619773, -8.086719], [112.618993, -8.0871491], [112.6174825, -8.0883612], [112.6171468, -8.0888792], [112.6168704, -8.0895928], [112.6163372, -8.0899153], [112.6159028, -8.0898176], [112.6154289, -8.089583], [112.6149847, -8.0896319], [112.6147576, -8.0898371], [112.6147378, -8.090101], [112.6149748, -8.0903552], [112.6156363, -8.0904725], [112.6157547, -8.0907364], [112.6153105, -8.0914206], [112.6148958, -8.093698], [112.6145897, -8.0941086], [112.6139875, -8.0945973], [112.6137111, -8.0950176], [112.613099, -8.0963665], [112.6131779, -8.0966304], [112.6135432, -8.0970018], [112.6136913, -8.0973439], [112.6137209, -8.0984679], [112.6138493, -8.0988296], [112.6146391, -8.1002273], [112.6147477, -8.1005303], [112.614649, -8.1008529], [112.6142837, -8.1012634], [112.6128225, -8.1023972], [112.6125658, -8.1028077], [112.6123684, -8.1032769], [112.6121018, -8.1033062], [112.6118056, -8.1034919], [112.611618, -8.1037363], [112.6116378, -8.1041077], [112.611149, -8.1047926], [112.6111302, -8.1050764], [112.6114601, -8.10617], [112.6106604, -8.1081737], [112.6104234, -8.1084865], [112.6100878, -8.108594], [112.6094065, -8.1087015], [112.6083995, -8.1088579], [112.6079157, -8.1087797], [112.6073036, -8.108809], [112.6070371, -8.1089947], [112.6068495, -8.1092196], [112.6068396, -8.1096105], [112.6066915, -8.1098451], [112.6064348, -8.1101188], [112.6059214, -8.1104804], [112.6056351, -8.1106954], [112.6055956, -8.1110962], [112.6055463, -8.1116826], [112.60526, -8.1121713], [112.604717, -8.1126698], [112.6042924, -8.1129435], [112.6041443, -8.1132758], [112.6041147, -8.1138231], [112.6039469, -8.114175], [112.6037494, -8.1143314], [112.603315, -8.114175], [112.602851, -8.1142141], [112.6017551, -8.1143509], [112.6005803, -8.1145366], [112.5998299, -8.1150839], [112.5994745, -8.1158756], [112.5997016, -8.1164034], [112.5999583, -8.1166575], [112.600057, -8.1171169], [112.5995388, -8.1182057], [112.599263, -8.1187182], [112.5988328, -8.119189], [112.5985017, -8.1193452], [112.5981318, -8.1195017], [112.5975987, -8.1195995], [112.5972432, -8.1195084], [112.5969767, -8.1196092], [112.5965522, -8.1203814], [112.5960955, -8.1206977], [112.5959781, -8.1207854], [112.5957037, -8.1211109], [112.5955356, -8.1215604], [112.5955368, -8.1219504], [112.5956074, -8.1222545], [112.5954007, -8.1227769], [112.5953246, -8.1230108], [112.5952983, -8.1242322], [112.5955987, -8.1243634], [112.5959565, -8.1245602], [112.5960514, -8.1248758], [112.5960285, -8.1252122], [112.5958019, -8.125366], [112.5954662, -8.1257374], [112.5949429, -8.1263042], [112.5943703, -8.1263727], [112.5942518, -8.1265388], [112.594242, -8.1269786], [112.5940544, -8.1279755], [112.5940149, -8.1284153], [112.5942175, -8.1287814], [112.5942222, -8.1290897], [112.5941235, -8.1295295], [112.5939063, -8.1297348], [112.5934213, -8.1295667], [112.5931954, -8.1295882], [112.5925224, -8.1299084], [112.5923661, -8.1302137], [112.5926228, -8.1306144], [112.5928301, -8.1309271], [112.5929387, -8.1312692], [112.592919, -8.1316993], [112.5926623, -8.1321684], [112.5919613, -8.1329112], [112.5918034, -8.1332826], [112.5916553, -8.1339569], [112.5908457, -8.1346118], [112.5905594, -8.1349734], [112.5901546, -8.1359116], [112.5899078, -8.1361462], [112.5894537, -8.1364394], [112.5879831, -8.1371004], [112.5877259, -8.137319], [112.5876272, -8.1376415], [112.5876568, -8.1382865], [112.5873705, -8.1387459], [112.5869164, -8.1395082], [112.5864523, -8.1400946], [112.5861759, -8.1405442], [112.5862963, -8.1408587], [112.5864508, -8.140973], [112.586709, -8.1411306], [112.587025, -8.1412674], [112.5873902, -8.1416388], [112.5880788, -8.1425715], [112.5881093, -8.143068], [112.5879925, -8.1434762], [112.5876272, -8.1436228], [112.5873006, -8.1438133], [112.5869282, -8.1440337], [112.5867624, -8.1442761], [112.5865728, -8.1446201], [112.5863675, -8.1450814], [112.5860436, -8.1454098], [112.5856566, -8.145699], [112.5851353, -8.145832], [112.5848589, -8.1459962], [112.5848001, -8.1460907], [112.5847325, -8.1461994], [112.5847968, -8.1463723], [112.5848227, -8.1465026], [112.5850011, -8.1466685], [112.5854998, -8.1470365], [112.5856961, -8.1473018], [112.5856487, -8.1475599], [112.5854434, -8.1477006], [112.5847325, -8.1478804], [112.5845919, -8.1480802], [112.5846029, -8.1483481], [112.584772, -8.1486623], [112.585009, -8.1489906], [112.585142, -8.1492734], [112.5850132, -8.1496273], [112.5842349, -8.1503745], [112.5840928, -8.1506951], [112.5842321, -8.1509912], [112.5843663, -8.1513404], [112.5842254, -8.1519321], [112.5840691, -8.152376], [112.5841323, -8.1526653], [112.5843218, -8.1528842], [112.5848747, -8.153283], [112.5850129, -8.1536074], [112.5850857, -8.1540493], [112.5850251, -8.1544706], [112.5849097, -8.1547615], [112.5844112, -8.1550435], [112.5840138, -8.1552063], [112.5837621, -8.1555454], [112.5836584, -8.1558552], [112.5833442, -8.1560569], [112.5826474, -8.1565432], [112.5822999, -8.1566448], [112.5814311, -8.1568559], [112.5810783, -8.1572164], [112.5808224, -8.1574993], [112.5807518, -8.157802], [112.5807834, -8.1580365], [112.580973, -8.1583883], [112.5809809, -8.1587167], [112.5809823, -8.159016], [112.5806922, -8.1591463], [112.579983, -8.1592727], [112.5790063, -8.1596393], [112.5787694, -8.1597409], [112.5786813, -8.159965], [112.5787564, -8.1602754], [112.5786193, -8.1619691], [112.5786825, -8.1623287], [112.5788957, -8.1626727], [112.5791722, -8.1630402], [112.5794197, -8.1633334], [112.5798486, -8.163562], [112.5799778, -8.163822], [112.5800603, -8.164443], [112.5802147, -8.1649556], [112.580798, -8.1658584], [112.5810092, -8.166422], [112.5807329, -8.1668456], [112.5802873, -8.1671701], [112.5801287, -8.1674635], [112.5801121, -8.1677936], [112.5801911, -8.1680829], [112.5804603, -8.1684451], [112.5806048, -8.1688883], [112.5803731, -8.1693976], [112.5797251, -8.1702798], [112.5793036, -8.1706661], [112.5789153, -8.1706166], [112.5783673, -8.1704114], [112.5776618, -8.1702112], [112.5773088, -8.1701429], [112.5771265, -8.1702172], [112.5770634, -8.170483], [112.5773014, -8.1711096], [112.5774069, -8.1713997], [112.577322, -8.1717769], [112.5772641, -8.1720876], [112.5769305, -8.172142], [112.5761788, -8.1720936], [112.5744877, -8.17281], [112.5731458, -8.173321], [112.5723843, -8.1735279], [112.5716476, -8.1737916], [112.5710489, -8.1740195], [112.5709192, -8.1744441], [112.5708001, -8.1751964], [112.5704368, -8.175682], [112.5702754, -8.1759563], [112.5699791, -8.176165], [112.5693233, -8.1764954], [112.5690099, -8.1765115], [112.5686583, -8.1763884], [112.5680041, -8.1761902], [112.5665587, -8.175252], [112.5651291, -8.1746735], [112.5643889, -8.1750615], [112.5619518, -8.1758769], [112.5612623, -8.1763], [112.5610913, -8.1768601], [112.5614883, -8.1779719], [112.5614726, -8.1785096], [112.561269, -8.1790661], [112.5606588, -8.1793173], [112.5600713, -8.1790357], [112.5592677, -8.1788485], [112.5588914, -8.1789384], [112.5581471, -8.179161], [112.5578777, -8.180367], [112.5575587, -8.1811687], [112.5568601, -8.1815698], [112.5558516, -8.1814371], [112.5544354, -8.1806034], [112.5536807, -8.1804672], [112.5530224, -8.1811609], [112.5525977, -8.1822959], [112.5522952, -8.1829273], [112.5520797, -8.1830135], [112.5512911, -8.1830984], [112.5500895, -8.182971], [112.5494779, -8.1829073], [112.5485838, -8.1827798], [112.5475116, -8.1823329], [112.5473416, -8.1822621], [112.5467999, -8.1822806], [112.5461461, -8.1823823], [112.5453522, -8.1820864], [112.5447825, -8.1816149], [112.544577, -8.1813653], [112.5441847, -8.1811989], [112.543171, -8.1806809], [112.5429368, -8.1804187], [112.5423945, -8.1804065], [112.5421789, -8.1806748], [112.5417229, -8.181913], [112.5413901, -8.1821326], [112.5401339, -8.1823261], [112.5392349, -8.1823892], [112.5386474, -8.1827465], [112.5378759, -8.1838535], [112.5374392, -8.1839299], [112.5368619, -8.1834833], [112.5361179, -8.1829843], [112.5344902, -8.1832437], [112.5340092, -8.18338], [112.5328758, -8.1837011], [112.5312243, -8.184982], [112.5298512, -8.1843887], [112.5284832, -8.1849559], [112.5256315, -8.1862466], [112.5243836, -8.1868115], [112.5183523, -8.189189], [112.5051323, -8.1927608], [112.4954062, -8.194162], [112.490647, -8.1920422], [112.4891449, -8.1883254], [112.4872605, -8.1845942], [112.4840204, -8.1832986], [112.4795357, -8.1830012], [112.4742739, -8.1791695], [112.4713226, -8.1779719], [112.4659582, -8.1790339], [112.4648317, -8.1792038], [112.46407, -8.1785878], [112.462289, -8.1750408], [112.4605535, -8.1710877], [112.4596966, -8.1690802], [112.4585579, -8.1677318], [112.4549082, -8.1660461], [112.4509522, -8.1641612], [112.4491838, -8.163556], [112.4474721, -8.163105], [112.4464988, -8.162818], [112.4455646, -8.1625486], [112.445199, -8.1624772], [112.4451442, -8.1624604], [112.445094, -8.1624204], [112.4450363, -8.1623655], [112.4444925, -8.161791], [112.4443137, -8.1615407], [112.4442932, -8.1615113], [112.4441816, -8.1613517], [112.4440524, -8.1612117], [112.4440257, -8.1611828], [112.4439336, -8.1611286], [112.4438044, -8.1611323], [112.4436737, -8.1612022], [112.4435117, -8.1612806], [112.4429194, -8.1615385], [112.4421436, -8.1616012], [112.4419312, -8.161606], [112.4413144, -8.1614369], [112.4405152, -8.1612291], [112.4398431, -8.1611012], [112.4393385, -8.1608131], [112.4390195, -8.1605068], [112.4388549, -8.1600838], [112.4388854, -8.1593304], [112.4388125, -8.158945], [112.4386288, -8.1585208], [112.4383766, -8.1581991], [112.4379621, -8.157833], [112.437661, -8.1575127], [112.4371693, -8.1573331], [112.4367476, -8.1573594], [112.4364248, -8.1573609], [112.435937, -8.1573341], [112.4355255, -8.1571979], [112.4352241, -8.1570303], [112.4349724, -8.1568474], [112.4347891, -8.1566574], [112.4345427, -8.1564968], [112.4341859, -8.1564921], [112.4338569, -8.1566046], [112.4332925, -8.1566891], [112.4326019, -8.1566235], [112.4321721, -8.1567977], [112.4319545, -8.1572373], [112.4317399, -8.1581135], [112.4312926, -8.1585542], [112.4304936, -8.1590045], [112.4298612, -8.159357], [112.4291865, -8.1594994], [112.4282155, -8.1589313], [112.4276545, -8.1590023], [112.4270755, -8.1592302], [112.4266276, -8.159372], [112.4263093, -8.1594607], [112.4257729, -8.1597743], [112.4252866, -8.1596588], [112.424841, -8.1593158], [112.4240014, -8.1587796], [112.423145, -8.1580797], [112.4226794, -8.1579383], [112.4220477, -8.1579449], [112.4210037, -8.1581964], [112.4206513, -8.1584415], [112.4205229, -8.1589525], [112.4202333, -8.1594517], [112.4196411, -8.1596932], [112.4186196, -8.1595617], [112.417889, -8.1594676], [112.4175272, -8.1597672], [112.4172699, -8.1601087], [112.4171567, -8.1602588], [112.4162963, -8.1616437], [112.4161831, -8.1627598], [112.4162582, -8.1642891], [112.4160865, -8.1660042], [112.4157969, -8.1664662], [112.4151404, -8.1663402], [112.4147562, -8.1658768], [112.412707, -8.1606889], [112.411677, -8.160349], [112.4105076, -8.1603491], [112.4091879, -8.1608694], [112.4081004, -8.1615247], [112.4068503, -8.1617984], [112.40598, -8.1617085], [112.4049393, -8.16242], [112.4030939, -8.1632377], [112.4003474, -8.1628979], [112.3992852, -8.162866], [112.39862, -8.1633015], [112.3982427, -8.1637627], [112.3974287, -8.1643386], [112.3960558, -8.164767], [112.3950527, -8.1643152], [112.3944851, -8.1636992], [112.3940281, -8.1631103], [112.3933951, -8.1619952], [112.3926426, -8.1615732], [112.3914213, -8.1616513], [112.39023, -8.1620376], [112.3892645, -8.1626218], [112.3879663, -8.1641723], [112.3864213, -8.1652131], [112.3860023, -8.1654689], [112.385906, -8.1657197], [112.3858588, -8.1660578], [112.3855754, -8.166478], [112.3850909, -8.1668486], [112.3843829, -8.1685053], [112.3838679, -8.1693549], [112.3819367, -8.1691956], [112.3810354, -8.1699283], [112.3799307, -8.1704891], [112.3783532, -8.170555], [112.3773447, -8.1702045], [112.37621, -8.1697174], [112.3750641, -8.1694618], [112.3736862, -8.1695354], [112.3722915, -8.1699815], [112.3708779, -8.1712841], [112.3700759, -8.1718771], [112.3691371, -8.1730825], [112.367603, -8.1740701], [112.3656423, -8.1754773], [112.364513, -8.1758463], [112.3636781, -8.175691], [112.3625819, -8.1749622], [112.3610476, -8.1745799], [112.3602966, -8.1742401], [112.3598618, -8.1732156], [112.3600499, -8.1719886], [112.3599328, -8.1713516], [112.3596636, -8.1706824], [112.3588375, -8.1697266], [112.3582474, -8.1687708], [112.357599, -8.1679211], [112.3568991, -8.1676313], [112.3557369, -8.1676557], [112.3548679, -8.1675595], [112.3539703, -8.1674546], [112.3526469, -8.1679636], [112.3517672, -8.1674858], [112.3512414, -8.1668592], [112.3510647, -8.1665767], [112.3504905, -8.1656591], [112.3496322, -8.1648945], [112.349506, -8.1642653], [112.3495577, -8.1635021], [112.3499433, -8.1625899], [112.3500774, -8.1619687], [112.3498392, -8.1616129], [112.349453, -8.1614111], [112.3490858, -8.1612518], [112.3486773, -8.1611775], [112.3479692, -8.1613579], [112.3473876, -8.1621636], [112.3470402, -8.1635686], [112.3469929, -8.1654255], [112.3466697, -8.1658443], [112.34631, -8.1659857], [112.3454694, -8.1657866], [112.3445177, -8.1656804], [112.34327, -8.1656591], [112.3425082, -8.1657972], [112.3419306, -8.1660706], [112.3412783, -8.1664679], [112.3410272, -8.1669051], [112.3411339, -8.1678007], [112.3411778, -8.1684415], [112.3409462, -8.1696309], [112.3405663, -8.1702971], [112.3401069, -8.1713721], [112.3396972, -8.1720099], [112.3393172, -8.1724061], [112.3388268, -8.1727072], [112.3383132, -8.1728807], [112.3377422, -8.1727514], [112.3367683, -8.1720205], [112.3361249, -8.1716943], [112.3351328, -8.1711719], [112.3343329, -8.1706399], [112.3334318, -8.1701932], [112.3329149, -8.1700193], [112.3323617, -8.1699723], [112.331813, -8.1699874], [112.3311697, -8.1699154], [112.3306338, -8.1699117], [112.3303108, -8.1698867], [112.3296604, -8.1698328], [112.3289964, -8.169668], [112.3283894, -8.1691484], [112.3278984, -8.1684452], [112.327563, -8.1680274], [112.3271208, -8.1677777], [112.3267399, -8.1677475], [112.3261735, -8.1678309], [112.3257927, -8.1680486], [112.3255059, -8.1683707], [112.3252505, -8.168745], [112.3249027, -8.1690681], [112.3246183, -8.1695214], [112.3242477, -8.1700239], [112.3239044, -8.1710328], [112.3235933, -8.1717337], [112.3232667, -8.1719688], [112.3227759, -8.1721956], [112.32222, -8.172201], [112.3218226, -8.1717537], [112.3213496, -8.1706781], [112.3209433, -8.1693973], [112.3203774, -8.1689999], [112.3196236, -8.1689089], [112.3186282, -8.1690768], [112.317907, -8.1692168], [112.317127, -8.1694505], [112.3161689, -8.1697372], [112.3153031, -8.1698328], [112.3146132, -8.1696098], [112.3139802, -8.1692062], [112.3141886, -8.1683127], [112.3145768, -8.1675911], [112.314596, -8.1668558], [112.3146025, -8.1666043], [112.3144813, -8.1661218], [112.3141733, -8.1657866], [112.3135378, -8.1656298], [112.3127814, -8.1660599], [112.312371, -8.1668379], [112.3120453, -8.1674543], [112.3114982, -8.1679945], [112.311185, -8.1682001], [112.3108285, -8.1680708], [112.3104507, -8.1672408], [112.3096849, -8.1663164], [112.3088733, -8.1657759], [112.3073069, -8.1661264], [112.3059336, -8.1671459], [112.3062769, -8.1683354], [112.3057619, -8.1693549], [112.3045603, -8.1698646], [112.3035303, -8.1686752], [112.3030154, -8.1673158], [112.3018137, -8.1662963], [112.3000971, -8.1662963], [112.2994105, -8.1642573], [112.2978655, -8.1640873], [112.2971789, -8.164767], [112.2971789, -8.1659565], [112.2958056, -8.1656166], [112.2945194, -8.1655004], [112.2932199, -8.165383], [112.2918069, -8.1655081], [112.2908167, -8.1655105], [112.2898865, -8.16537], [112.2896579, -8.1649051], [112.2895614, -8.1632058], [112.2892717, -8.1626218], [112.2888887, -8.162322], [112.2878802, -8.162322], [112.2869221, -8.1625899], [112.2864425, -8.1622477], [112.2858739, -8.161345], [112.2856132, -8.1607101], [112.2820727, -8.1586498], [112.2815931, -8.1581377], [112.2815502, -8.1576704], [112.2814965, -8.156311], [112.2812358, -8.1550814], [112.2794978, -8.1532122], [112.2762898, -8.1501641], [112.2747052, -8.1495883], [112.2736215, -8.1496626], [112.2726742, -8.1500792], [112.2713653, -8.1514174], [112.2705746, -8.1518929], [112.2698847, -8.1518528], [112.268933, -8.1513194], [112.2681788, -8.1496331], [112.2677389, -8.1474772], [112.2666232, -8.1462452], [112.262793, -8.1456929], [112.2576968, -8.1443759], [112.2555542, -8.1439169], [112.2539202, -8.1427297], [112.2521929, -8.141211], [112.2488086, -8.1411603], [112.2472087, -8.141152], [112.2455946, -8.1413172], [112.2443823, -8.1424323], [112.243009, -8.1446945], [112.2421753, -8.1453825], [112.2414104, -8.1455867], [112.2401981, -8.1455336], [112.2397399, -8.1456056], [112.2378055, -8.1476046], [112.2368292, -8.1476577], [112.2357273, -8.1471987], [112.2350192, -8.1465614], [112.2349302, -8.1457354], [112.2351908, -8.1449258], [112.2351908, -8.1443523], [112.2348658, -8.1439299], [112.2341148, -8.1436962], [112.2337849, -8.1436546], [112.2326771, -8.1434838], [112.2320366, -8.1436514], [112.2315398, -8.1441848], [112.2307957, -8.1465479], [112.2302132, -8.1490421], [112.2301268, -8.1496839], [112.2296119, -8.1503423], [112.2285481, -8.1506542], [112.2271657, -8.1508733], [112.225918, -8.1504084], [112.2245049, -8.1494502], [112.2235147, -8.1493039], [112.2223806, -8.1495352], [112.2212402, -8.1503659], [112.2198562, -8.1519165], [112.2186789, -8.1530201], [112.2171418, -8.1536582], [112.2163692, -8.1539238], [112.2153425, -8.1542506], [112.2119919, -8.1549539], [112.2096771, -8.1544256], [112.2094599, -8.1544017], [112.2034518, -8.1521502], [112.2018671, -8.1520841], [112.1987772, -8.1528487], [112.1973578, -8.1525113], [112.1960703, -8.1515129], [112.1943569, -8.1509371], [112.1912736, -8.1503451], [112.1906735, -8.1502298], [112.1888561, -8.1498045], [112.1845371, -8.1488002], [112.1844724, -8.1487835], [112.1830241, -8.1487941], [112.1817934, -8.1491953], [112.1804492, -8.1503129], [112.1795372, -8.1507376], [112.1786467, -8.1506739], [112.1778345, -8.14996], [112.1773485, -8.148741], [112.1771908, -8.1475598], [112.1774375, -8.1463278], [112.1771768, -8.14513], [112.1768013, -8.1441635], [112.1760106, -8.1435239], [112.1748808, -8.1431439], [112.1747631, -8.1431345], [112.1739185, -8.1430672], [112.1727705, -8.1433965], [112.1698061, -8.144206], [112.1649816, -8.1435925], [112.1625081, -8.1439816], [112.1592704, -8.1433564], [112.1572749, -8.1435475], [112.1549789, -8.1436654], [112.152125, -8.1431864], [112.1503326, -8.1426261], [112.1488634, -8.1421668], [112.1467158, -8.1409421], [112.1432924, -8.1386753], [112.1400763, -8.1370113], [112.1379482, -8.1358533], [112.1370832, -8.1346418], [112.1367012, -8.133314], [112.1360502, -8.13267], [112.132384, -8.131631], [112.1295086, -8.1304415], [112.1277706, -8.1298254], [112.1261397, -8.1292943], [112.1251742, -8.127765], [112.1230773, -8.1260925], [112.1221647, -8.1253646], [112.1218691, -8.1252522], [112.1194961, -8.1244906], [112.1167711, -8.1238092], [112.1159597, -8.1232617], [112.1156065, -8.1228034], [112.1150633, -8.121689], [112.1139804, -8.1205797], [112.1129899, -8.1199898], [112.1114992, -8.1189274], [112.110782, -8.1187121], [112.110102, -8.1185084], [112.109853, -8.1184338], [112.1088365, -8.1176552], [112.1073869, -8.1172804], [112.1056322, -8.1166786], [112.1033195, -8.1154565], [112.1023515, -8.1150955], [112.1005205, -8.1138872], [112.0989183, -8.1130575], [112.0984605, -8.1127152], [112.0984577, -8.1127125], [112.0984376, -8.1126932], [112.0967821, -8.1113953], [112.0947984, -8.1106428], [112.0928911, -8.1104959], [112.0913704, -8.1109338], [112.089953, -8.1115316], [112.0887785, -8.1120901], [112.0866252, -8.1130084], [112.0859685, -8.113538], [112.0853609, -8.1144585], [112.0846752, -8.1159196], [112.0840913, -8.116751], [112.0834074, -8.1173776], [112.0824683, -8.1185794], [112.0812163, -8.1189329], [112.0802702, -8.1190122], [112.0791455, -8.1189185], [112.0781154, -8.1186316], [112.0763777, -8.118217], [112.0726121, -8.1172956], [112.0726084, -8.1172944], [112.0712007, -8.1168465], [112.0703346, -8.1158501], [112.0696104, -8.1147067], [112.0692381, -8.1133878], [112.0683034, -8.1120684], [112.067585, -8.1115439], [112.066819, -8.1111429], [112.0660917, -8.1110235], [112.0649811, -8.1110459], [112.0633073, -8.1114451], [112.0628589, -8.1115173], [112.0623118, -8.1113049], [112.0612062, -8.1108831], [112.0592738, -8.1102439], [112.057361, -8.1097957], [112.0561939, -8.1095406], [112.0542334, -8.1094893], [112.0531578, -8.1095954], [112.0504152, -8.1096879], [112.0492448, -8.1096242], [112.0488071, -8.1094956], [112.0478614, -8.1090056], [112.0468313, -8.1085128], [112.0450066, -8.1074465], [112.0429174, -8.1057654], [112.0428786, -8.1057342], [112.0393401, -8.1033663], [112.0386849, -8.1030681], [112.0382036, -8.102837], [112.0377077, -8.1023716], [112.0370592, -8.1020063], [112.0358903, -8.1007856], [112.0349694, -8.0998798], [112.0337908, -8.0989533], [112.0323442, -8.098506], [112.0296005, -8.0982889], [112.0275758, -8.0983882], [112.0257342, -8.0984933], [112.0247402, -8.0984969], [112.0222025, -8.0982538], [112.0185182, -8.097385], [112.0171004, -8.0968644], [112.014866, -8.0968996], [112.0135821, -8.0970723], [112.0111752, -8.0977461], [112.0088123, -8.0975703], [112.0085174, -8.0975126], [112.0077664, -8.0975551], [112.0067137, -8.0971294], [112.0054457, -8.0963964], [112.0043036, -8.0959831], [112.0031451, -8.0955896], [112.0023342, -8.0951989], [112.0013688, -8.0947336], [112.000049, -8.0936827], [111.9993583, -8.0931941], [111.9993547, -8.0931915], [111.9976885, -8.0924106], [111.9960386, -8.0911012], [111.9955176, -8.0898085], [111.9953909, -8.0894443], [111.9951221, -8.0887473], [111.9949678, -8.0883221], [111.9942582, -8.0866274], [111.9936944, -8.08402], [111.9936318, -8.0818054], [111.9926603, -8.0807972], [111.992061, -8.0798115], [111.9912614, -8.0791455], [111.9910803, -8.0790249], [111.9895369, -8.0775934], [111.9892179, -8.0773176], [111.9866892, -8.0752312], [111.9853546, -8.0728666], [111.9848629, -8.0709193], [111.9846423, -8.0702497], [111.984419, -8.0699023], [111.9840199, -8.0695284], [111.9838576, -8.0692012], [111.983813, -8.0688791], [111.9837097, -8.0674743], [111.9834816, -8.0668143], [111.9831866, -8.0661982], [111.9822639, -8.0653903], [111.9818771, -8.0652164], [111.9799942, -8.06437], [111.9792392, -8.0619647], [111.9784063, -8.060705], [111.9773539, -8.0595707], [111.9763255, -8.0588779], [111.9752917, -8.0585281], [111.9728685, -8.057654], [111.9694445, -8.0565576], [111.9664056, -8.0559106], [111.965099, -8.0555722], [111.9641023, -8.0550943], [111.9631339, -8.0543039], [111.9623011, -8.0534373], [111.9613266, -8.0520272], [111.9602022, -8.0500382], [111.9596004, -8.0494187], [111.9589199, -8.0490041], [111.9580038, -8.0485505], [111.9572092, -8.0482805], [111.956368, -8.0480193], [111.955559, -8.0477993], [111.9542343, -8.047129], [111.953398, -8.0464979], [111.9525929, -8.04572], [111.9511896, -8.0442218], [111.9479912, -8.04145], [111.9454259, -8.0396024], [111.9448525, -8.0393803], [111.9442338, -8.0391788], [111.9423465, -8.0382481], [111.9413704, -8.0377953], [111.9405721, -8.0371603], [111.9397476, -8.0364476], [111.9394859, -8.0359681], [111.9392446, -8.0353858], [111.9387661, -8.0342835], [111.9370474, -8.0321903], [111.9366983, -8.0317437], [111.9363225, -8.0313213], [111.935485, -8.0306084], [111.934997, -8.0302923], [111.9343658, -8.0296928], [111.9338323, -8.0291131], [111.93332, -8.0281013], [111.932733, -8.0261196], [111.9322323, -8.0242812], [111.93183, -8.0224782], [111.9313414, -8.0219996], [111.9307915, -8.0214004], [111.9302465, -8.0210156], [111.9297207, -8.0207], [111.9290556, -8.02034], [111.928362, -8.0200549], [111.9268808, -8.0190196], [111.9244697, -8.0173115], [111.9229362, -8.0165576], [111.9218434, -8.0160083], [111.9209548, -8.0153767], [111.9201902, -8.0146792], [111.9194633, -8.0135749], [111.9195139, -8.0120028], [111.919734, -8.0106425], [111.9204159, -8.0092622], [111.9214263, -8.007659], [111.921718, -8.0064981], [111.9216692, -8.0054083], [111.9204997, -8.0038843], [111.9203157, -8.0033934], [111.9204575, -8.0024174], [111.9202745, -8.0020966], [111.9197115, -8.0016269], [111.9194416, -8.0012739], [111.9190122, -8.000329], [111.9189689, -7.9992759], [111.9189917, -7.9985425], [111.9191886, -7.9979135], [111.9195937, -7.9971688], [111.9200913, -7.9965182], [111.9200256, -7.9961839], [111.9188345, -7.9948276], [111.9179565, -7.9948972], [111.9169028, -7.9955232], [111.9152863, -7.9956542], [111.9147604, -7.9949667], [111.9146902, -7.9937842], [111.9153224, -7.9925669], [111.9174999, -7.9905496], [111.9183077, -7.9882889], [111.9180267, -7.9849499], [111.917943, -7.9832433], [111.9178511, -7.9813675], [111.918975, -7.9778546], [111.9211104, -7.9754668], [111.9230273, -7.973799], [111.9240696, -7.9722969], [111.9254619, -7.9695937], [111.92671, -7.9664184], [111.9265608, -7.9648888], [111.9269161, -7.9638872], [111.9280122, -7.9627842], [111.9290987, -7.9625102], [111.9306731, -7.9625134], [111.9312045, -7.9622706], [111.9315423, -7.9618247], [111.9323851, -7.959755], [111.9338683, -7.9580128], [111.9357444, -7.9565091], [111.9375147, -7.9562972], [111.9396158, -7.9563352], [111.9403656, -7.9563439], [111.9413291, -7.9559784], [111.9433252, -7.9547642], [111.9447922, -7.9532644], [111.9448154, -7.9532147], [111.9464639, -7.9492171], [111.9472988, -7.9473974], [111.9484255, -7.9456879], [111.9502547, -7.944086], [111.9523149, -7.9432817], [111.9540978, -7.9425377], [111.9544705, -7.9423822], [111.9558028, -7.9414595], [111.9563482, -7.9395715], [111.9562028, -7.9374853], [111.9556594, -7.9345527], [111.955489, -7.9329212], [111.955821, -7.9319835], [111.9572743, -7.9296292], [111.9587382, -7.9277786], [111.9595965, -7.927151], [111.960023, -7.9267408], [111.9603052, -7.9262776], [111.9607151, -7.9250459], [111.9611259, -7.9239728], [111.9615304, -7.9227771], [111.9617557, -7.9220439], [111.9619585, -7.9214844], [111.9622429, -7.9205067], [111.9626516, -7.9186541], [111.9628757, -7.9176647], [111.9629348, -7.9174038], [111.9632953, -7.9161356], [111.9635947, -7.9147312], [111.9636108, -7.9139714], [111.9634563, -7.9136595], [111.9632202, -7.9132929], [111.9630271, -7.9131176], [111.9625497, -7.9130166], [111.9622332, -7.9128572], [111.9621248, -7.9124836], [111.9619274, -7.9111357], [111.9619475, -7.9102869], [111.9621436, -7.9096915], [111.9630271, -7.9080858], [111.9636331, -7.9073444], [111.9638479, -7.9070816], [111.9645496, -7.9062245], [111.9649905, -7.9057851], [111.9652748, -7.9054344], [111.965425, -7.9045683], [111.9655967, -7.9040211], [111.9659507, -7.9032665], [111.9662619, -7.9027246], [111.9665569, -7.9024536], [111.9670933, -7.902241], [111.9678647, -7.9019737], [111.9686168, -7.9015556], [111.9691372, -7.9010296], [111.9694483, -7.9008011], [111.969914, -7.9006294], [111.9715404, -7.9003601], [111.9728547, -7.9000466], [111.9737334, -7.899673], [111.9745231, -7.8990423], [111.9750369, -7.8982383], [111.9752687, -7.8977139], [111.9754608, -7.8970215], [111.9754511, -7.8958329], [111.9751829, -7.8943717], [111.9747795, -7.8927706], [111.9744211, -7.8916352], [111.974228, -7.8910507], [111.9740231, -7.8903477], [111.9739705, -7.8893929], [111.9742978, -7.8879475], [111.9748449, -7.8863853], [111.9752247, -7.8850872], [111.9752955, -7.8844777], [111.9752473, -7.8831599], [111.9751657, -7.8818882], [111.975081, -7.8800832], [111.9749629, -7.8789142], [111.9750166, -7.8783403], [111.9752609, -7.8774008], [111.975332, -7.8771272], [111.9757084, -7.8767704], [111.9760285, -7.8764495], [111.9765976, -7.8753349], [111.9773017, -7.8746479], [111.9795215, -7.8733753], [111.9805704, -7.8721027], [111.9808956, -7.8709832], [111.9813103, -7.8697186], [111.9818063, -7.8686394], [111.9822616, -7.86785], [111.9832455, -7.8674554], [111.985327, -7.866803], [111.9867418, -7.8662391], [111.9883761, -7.865039], [111.9896526, -7.8635973], [111.9901486, -7.8629368], [111.990669, -7.8626469], [111.9910593, -7.8619461], [111.9912219, -7.8615353], [111.9916447, -7.8609232], [111.9920838, -7.8604882], [111.9924497, -7.8601983], [111.9927099, -7.8597472], [111.9929375, -7.8591592], [111.9931733, -7.8584666], [111.9936368, -7.8576047], [111.9939946, -7.856614], [111.9941328, -7.8559777], [111.9941734, -7.8552689], [111.9944266, -7.8545711], [111.9946206, -7.8540365], [111.9949236, -7.8534419], [111.9954821, -7.8525583], [111.9959134, -7.8520106], [111.9968937, -7.8513471], [111.9970453, -7.8512881], [111.9979949, -7.8509185], [111.9993298, -7.8499513], [112.0001398, -7.8490717], [112.0008703, -7.8480394], [112.0016434, -7.8472645], [112.0026934, -7.8465108], [112.0060728, -7.844085], [112.0063983, -7.8437638], [112.0070117, -7.8430753], [112.0076003, -7.8418392], [112.0080179, -7.840905], [112.0081969, -7.8401203], [112.0081878, -7.8398197], [112.0081452, -7.8386415], [112.00806, -7.8375499], [112.0076295, -7.8359191], [112.0070599, -7.8341154], [112.0070481, -7.8332072], [112.0072078, -7.8323329], [112.0073798, -7.8315327], [112.0076552, -7.8308861], [112.0077685, -7.8305198], [112.0082738, -7.8297689], [112.0088578, -7.8287514], [112.0090575, -7.828046], [112.0093473, -7.8253907], [112.0094631, -7.8243968], [112.0094509, -7.8236175], [112.0094385, -7.8228218], [112.009457, -7.8218572], [112.0089857, -7.8204369], [112.0078404, -7.8172257], [112.0074405, -7.8146881], [112.007511, -7.8137568], [112.007552, -7.8132149], [112.007745, -7.8106631], [112.0077574, -7.8104992], [112.0076953, -7.8083123], [112.007525, -7.8057976], [112.0068361, -7.8018134], [112.0061652, -7.7968548], [112.0054602, -7.7944134], [112.005128, -7.7935737], [112.0050745, -7.7934386], [112.0033029, -7.7902762], [112.0028885, -7.7895111], [112.0020745, -7.7878421], [112.0020123, -7.7875348], [112.0016814, -7.785901], [112.0019245, -7.7850567], [112.0024913, -7.7842485], [112.0025456, -7.7842018], [112.0040709, -7.7828901], [112.0056697, -7.7820951], [112.0077565, -7.7815799], [112.0090274, -7.7814084], [112.0100881, -7.7810656], [112.0103875, -7.7809359], [112.0121963, -7.7794161], [112.0151467, -7.7771732], [112.0165951, -7.7762377], [112.0204516, -7.7745244], [112.0226485, -7.7722941], [112.0234358, -7.7711262], [112.023555, -7.7708001], [112.0238864, -7.7698931], [112.0240742, -7.7691065], [112.0241866, -7.7679635], [112.0238231, -7.7649534], [112.0235015, -7.7645231], [112.0230555, -7.7639266], [112.0228325, -7.7634492], [112.0223145, -7.762584], [112.0220042, -7.7620601], [112.0215836, -7.7616213], [112.0214778, -7.7613024], [112.0213877, -7.7608853], [112.0213157, -7.7604815], [112.0212419, -7.7598321], [112.0214004, -7.7591085], [112.0215127, -7.7585478], [112.0215279, -7.7578742], [112.0214995, -7.7574289], [112.0214309, -7.7564625], [112.0214462, -7.7553457], [112.0213775, -7.7543849], [112.0212058, -7.753737], [112.0211994, -7.7523061], [112.0213389, -7.7514904], [112.0214462, -7.7508382], [112.0214767, -7.75039], [112.0214767, -7.7500004], [112.0213775, -7.7481636], [112.0213772, -7.7481599], [112.0211639, -7.7457208], [112.0210518, -7.7452967], [112.0206451, -7.7437581], [112.020607, -7.7425408], [112.0206073, -7.7425396], [112.0207748, -7.7419209], [112.0212097, -7.7405896], [112.0220336, -7.739067], [112.0226058, -7.7381157], [112.0226934, -7.7370222], [112.0228605, -7.7363212], [112.0231318, -7.735274], [112.0235824, -7.7345156], [112.0243759, -7.733107], [112.0250024, -7.7319634], [112.0250854, -7.7318119], [112.0250867, -7.7318088], [112.0258941, -7.7298726], [112.026123, -7.728454], [112.0261234, -7.7284512], [112.02639, -7.7267675], [112.0272205, -7.7256903], [112.0272216, -7.7256889], [112.0281066, -7.7253064], [112.0293121, -7.7254938], [112.0312271, -7.7261223], [112.0319213, -7.7263741], [112.0326233, -7.7262458], [112.034327, -7.7255646], [112.0347344, -7.7253786], [112.0356472, -7.7250765], [112.0376639, -7.7244327], [112.0389175, -7.7241749], [112.0397415, -7.7243914], [112.0416488, -7.72445], [112.043045, -7.7245101], [112.0447616, -7.7245692], [112.0457229, -7.7248205], [112.0467805, -7.7252976], [112.0481843, -7.7261492], [112.0490951, -7.7262692], [112.0504838, -7.7259264], [112.0518519, -7.7250565], [112.0530549, -7.7240485], [112.0548089, -7.7238236], [112.0553821, -7.7238089], [112.0566558, -7.7237801], [112.057991, -7.7236499], [112.0586858, -7.7235685], [112.0603422, -7.722437], [112.0608875, -7.7219622], [112.0616148, -7.7215378], [112.0621589, -7.7211183], [112.0626831, -7.7205342], [112.0633421, -7.7191492], [112.0635681, -7.7171749], [112.0641189, -7.7150307], [112.0647994, -7.7132314], [112.0649263, -7.7128849], [112.0657806, -7.7116584], [112.0666046, -7.7107696], [112.0676803, -7.70969], [112.0692672, -7.7086724], [112.0703506, -7.7077827], [112.0714743, -7.7064907], [112.0721367, -7.7056651], [112.0724291, -7.7053594], [112.0729369, -7.7050571], [112.0736686, -7.7046594], [112.0736694, -7.7046589], [112.0750885, -7.7036046], [112.0750909, -7.7036004], [112.0763092, -7.7014965], [112.0765609, -7.7000393], [112.0764312, -7.6985826], [112.0761032, -7.6969365], [112.075592, -7.6953539], [112.0751419, -7.6930746], [112.0751419, -7.6918711], [112.0761489, -7.6890182], [112.0764007, -7.6875605], [112.0764618, -7.6864833], [112.0763924, -7.6853745], [112.0763353, -7.6839386], [112.076326, -7.6838205], [112.0762752, -7.6831747], [112.0761478, -7.6823922], [112.075943, -7.6812271], [112.0758056, -7.6797704], [112.0758667, -7.6787566], [112.0764999, -7.6774248], [112.0773849, -7.6760291], [112.0785904, -7.6748857], [112.0793533, -7.6745671], [112.0810089, -7.6741828], [112.0817087, -7.6738286], [112.0821645, -7.6734147], [112.0824369, -7.6731378], [112.0827064, -7.6728504], [112.0831732, -7.6722036], [112.0832823, -7.6719244], [112.083492, -7.6710334], [112.0833736, -7.6706615], [112.0831171, -7.6701153], [112.0830266, -7.6699167], [112.082672, -7.6693925], [112.0821455, -7.6677546], [112.0822631, -7.6669592], [112.0832079, -7.6660352], [112.0838572, -7.6650603], [112.084338, -7.6640508], [112.0844116, -7.6632155], [112.0844726, -7.6625189], [112.0844199, -7.6611357], [112.0845303, -7.6601748], [112.0849151, -7.6591605], [112.0854797, -7.6581453], [112.0863284, -7.6577004], [112.0879398, -7.6573727], [112.0890802, -7.6569042], [112.0897319, -7.6565169], [112.0903032, -7.6556866], [112.0904689, -7.6552397], [112.0905839, -7.6547683], [112.0908993, -7.6536413], [112.0909724, -7.6526281], [112.091198, -7.6509324], [112.0913931, -7.6500932], [112.0917227, -7.6494517], [112.092733, -7.6487589], [112.0939027, -7.6482026], [112.0954758, -7.6476643], [112.0961953, -7.6472876], [112.0974883, -7.6464947], [112.0979236, -7.6459181], [112.0981402, -7.6452387], [112.0982291, -7.644132], [112.0982758, -7.6432172], [112.0982818, -7.6424669], [112.0982208, -7.6415166], [112.0981521, -7.6405033], [112.0981965, -7.639951], [112.0982132, -7.6397432], [112.098215, -7.6397402], [112.0989074, -7.6386012], [112.0996814, -7.637634], [112.1000367, -7.6373798], [112.1002385, -7.6372176], [112.1006538, -7.6368839], [112.1012088, -7.6360039], [112.1014898, -7.6352325], [112.1014452, -7.6343507], [112.101181, -7.6335277], [112.10087, -7.6324731], [112.1005518, -7.6314455], [112.1005339, -7.6302397], [112.1008529, -7.6283344], [112.1011657, -7.6271934], [112.1014848, -7.6258442], [112.1018816, -7.6248423], [112.102022, -7.6245325], [112.1023945, -7.6231038], [112.1023459, -7.6213694], [112.1023548, -7.619283], [112.1028775, -7.6179796], [112.1036529, -7.6168345], [112.1038675, -7.6154553], [112.1038893, -7.6143498], [112.1033031, -7.6126925], [112.1026309, -7.6113272], [112.1026315, -7.6104819], [112.102851, -7.6093424], [112.1034347, -7.6083667], [112.1041921, -7.6074042], [112.1056843, -7.6063309], [112.1083683, -7.6048858], [112.1093946, -7.6034437], [112.1096919, -7.6016887], [112.1097489, -7.6010519], [112.1095984, -7.600299], [112.10877, -7.5979438], [112.108714, -7.5970405], [112.108922, -7.5962001], [112.1090776, -7.5956869], [112.1094976, -7.5949638], [112.110209, -7.5931194], [112.1106806, -7.5922947], [112.1110015, -7.5919797], [112.1114349, -7.5915542], [112.1120751, -7.5909221], [112.1120758, -7.5909215], [112.1131744, -7.5898295], [112.1132365, -7.5896908], [112.1133957, -7.589335], [112.1134643, -7.5886579], [112.1136169, -7.5872789], [112.113739, -7.5858751], [112.1140823, -7.5844713], [112.1146927, -7.5832043], [112.1150589, -7.582306], [112.1151047, -7.5820065], [112.115109, -7.5819885], [112.1151123, -7.5819746], [112.1144144, -7.5793211], [112.1147401, -7.5784519], [112.1145934, -7.5768929], [112.1141689, -7.5758781], [112.1139221, -7.5753687], [112.1137397, -7.5746511], [112.1139221, -7.5741854], [112.1136866, -7.572662], [112.113513, -7.5721093], [112.1128681, -7.5711491], [112.1126263, -7.5703351], [112.1117782, -7.5679966], [112.1113274, -7.5672727], [112.1113451, -7.5670756], [112.1113433, -7.5666729], [112.1116104, -7.565877], [112.1117854, -7.5655174], [112.1117858, -7.5655165], [112.1118698, -7.5653463], [112.1122518, -7.5648322], [112.1128647, -7.5645264], [112.113384, -7.5643402], [112.1143264, -7.563717], [112.1148578, -7.5624329], [112.1147865, -7.5616735], [112.1149421, -7.5606844], [112.1154059, -7.559362], [112.1156448, -7.5583233], [112.1166694, -7.5568236], [112.1174587, -7.5559535], [112.1193084, -7.5529967], [112.121582, -7.550571], [112.123703, -7.5492998], [112.125, -7.5485831], [112.1255188, -7.5482145], [112.1261138, -7.5478154], [112.1268081, -7.5472017], [112.1272049, -7.5466638], [112.1275216, -7.5454965], [112.1279907, -7.5448888], [112.1282333, -7.5445469], [112.130695, -7.541991], [112.1317291, -7.5411268], [112.1334654, -7.5406784], [112.136263, -7.5394499], [112.1376604, -7.5390564], [112.1392871, -7.5382905], [112.1399935, -7.5377303], [112.1408797, -7.5368508], [112.1413171, -7.536522], [112.1419822, -7.5362108], [112.1428535, -7.5359511], [112.1435263, -7.5356615], [112.1440338, -7.5354338], [112.1442189, -7.5353252], [112.1453476, -7.5342746], [112.147377, -7.5324016], [112.149086, -7.5310169], [112.1507873, -7.5292264], [112.1512101, -7.5281915], [112.1513519, -7.5278445], [112.15168, -7.526301], [112.1515884, -7.5248399], [112.1512603, -7.5230547], [112.1513824, -7.5206028], [112.1513858, -7.5205765], [112.151947, -7.5162545], [112.1527938, -7.5135356], [112.1525039, -7.5091148], [112.1522216, -7.5074731], [112.1521737, -7.5061069], [112.1523827, -7.503867], [112.1521327, -7.5026106], [112.1520477, -7.5010413], [112.1522409, -7.4992703], [112.1532699, -7.4980205], [112.1552425, -7.4969654], [112.158449, -7.4954047], [112.1645596, -7.4936409], [112.1654, -7.4936287], [112.166069, -7.4935599], [112.1665649, -7.4931231], [112.1671218, -7.4927822], [112.1677703, -7.4923373], [112.1680832, -7.4920483], [112.1683959, -7.4916931], [112.1687866, -7.4913533], [112.1691772, -7.4911051], [112.1696529, -7.4907458], [112.1706299, -7.4904102], [112.1741791, -7.4890582], [112.1772613, -7.4873173], [112.1810347, -7.4867061], [112.1832576, -7.4871876], [112.1853842, -7.4889444], [112.1872719, -7.4907827], [112.1883946, -7.4914474], [112.1900384, -7.4915215], [112.1912526, -7.4910399], [112.1926536, -7.4902065], [112.1939986, -7.4890953], [112.1961529, -7.486488], [112.2007308, -7.4820051], [112.202426, -7.4790692], [112.2035418, -7.4748779], [112.2044215, -7.4732823], [112.2059376, -7.4720209], [112.2085125, -7.4703189], [112.2111163, -7.4684953], [112.2149144, -7.467389], [112.2187562, -7.4660736], [112.2224357, -7.4641295], [112.2265659, -7.4595807], [112.2288618, -7.4580914], [112.2317157, -7.4559212], [112.2328959, -7.4537298], [112.2340331, -7.4524745], [112.2359, -7.452134], [112.2370083, -7.452447], [112.2385329, -7.4540945], [112.2406132, -7.45483], [112.2419018, -7.4552434], [112.2440261, -7.4552221], [112.2459358, -7.4546477], [112.2476513, -7.4536385], [112.2495621, -7.4513073], [112.2506994, -7.4475839], [112.2518152, -7.4459881], [112.2538311, -7.4451279], [112.2560853, -7.4460732], [112.2576302, -7.4465839], [112.2590894, -7.4467541], [112.2616857, -7.4466477], [112.2660665, -7.4446691], [112.2697956, -7.4424044], [112.2768338, -7.4395699], [112.2796474, -7.4381342], [112.2834838, -7.4369648], [112.2863274, -7.4340193], [112.2876045, -7.4335647], [112.2890336, -7.4335184], [112.2902945, -7.4337685], [112.2941425, -7.4379176], [112.2962253, -7.4393346], [112.2993823, -7.4414555], [112.3027546, -7.4429151], [112.3048779, -7.4433601], [112.3090324, -7.4431454], [112.3142268, -7.4451364], [112.3165694, -7.4452966], [112.3191945, -7.4456209], [112.3205373, -7.4461351], [112.3218464, -7.4469817], [112.3227327, -7.4482716], [112.3240235, -7.4515754], [112.3236238, -7.453896], [112.3237132, -7.4551053], [112.3239198, -7.4562049], [112.3244239, -7.4570353], [112.3249118, -7.4574303], [112.3257411, -7.4577609], [112.3265949, -7.4578576], [112.3274486, -7.4575513], [112.3284081, -7.4570031], [112.3303494, -7.455239], [112.3319729, -7.4541288], [112.3328782, -7.4539008], [112.3338546, -7.454275], [112.3348693, -7.4546098], [112.3348779, -7.454613], [112.3362274, -7.4555987], [112.3372421, -7.4563302], [112.3386993, -7.4577159], [112.3396835, -7.4586266], [112.3406982, -7.4592732], [112.3406991, -7.4592738], [112.3411788, -7.4595774], [112.3416671, -7.4596948], [112.3427886, -7.4596914], [112.3439864, -7.4591516], [112.3452758, -7.4583362], [112.3465042, -7.4573764], [112.3471069, -7.4567827], [112.3471101, -7.4567795], [112.3479538, -7.4559406], [112.3479577, -7.4559367], [112.3480529, -7.4558429], [112.3483505, -7.455623], [112.349149, -7.4551063], [112.3496856, -7.4548539], [112.3506469, -7.4546584], [112.3516769, -7.4547838], [112.3529663, -7.4552854], [112.3536758, -7.4556045], [112.3551472, -7.4564504], [112.3551712, -7.4564604], [112.3554077, -7.4565948], [112.3566647, -7.4570996], [112.3568801, -7.4571861], [112.3582, -7.457599], [112.3639221, -7.457138], [112.3649062, -7.4570612], [112.3667602, -7.4566983], [112.3688125, -7.4564933], [112.3696513, -7.4566104], [112.3697814, -7.4566105], [112.3705062, -7.4566988], [112.3709999, -7.4568303], [112.3710021, -7.4568309], [112.3722, -7.4571503], [112.3738174, -7.4576019], [112.3749999, -7.4578961], [112.3763198, -7.4584035], [112.3774719, -7.4584564], [112.3781509, -7.458536], [112.3798065, -7.4587563], [112.3804168, -7.4588393], [112.3812026, -7.4588956], [112.3827056, -7.4588536], [112.3840484, -7.4587563], [112.3851471, -7.4587301], [112.3868331, -7.4587377], [112.3880309, -7.4586195], [112.3892517, -7.4584297], [112.3907623, -7.4580482], [112.3919723, -7.4577274], [112.3923993, -7.4576744], [112.3924026, -7.4576739], [112.3930358, -7.4575766], [112.3945999, -7.4574321], [112.396408, -7.4574016], [112.3975448, -7.4575099], [112.3987426, -7.4577621], [112.4001011, -7.4579008], [112.4032221, -7.4579409], [112.4053769, -7.4579389], [112.4086145, -7.4578529], [112.4152797, -7.4572306], [112.4158798, -7.4571738], [112.4166303, -7.4571299], [112.41762, -7.4570693], [112.4186858, -7.4569658], [112.4210205, -7.4568628], [112.4228973, -7.4570926], [112.4248962, -7.4576777], [112.4264907, -7.45831], [112.4277648, -7.4589452], [112.4288482, -7.459534], [112.4307479, -7.4601353], [112.4308776, -7.4601608], [112.4317627, -7.4601725], [112.4320066, -7.4601565], [112.4328689, -7.4600905], [112.433937, -7.4598302], [112.4343185, -7.4596905], [112.435501, -7.4589971], [112.4358444, -7.4586896], [112.4374847, -7.4576439], [112.4382018, -7.4572653], [112.4389724, -7.4567431], [112.4403228, -7.4560708], [112.4415664, -7.455192], [112.4424698, -7.4544951], [112.4433212, -7.4538387], [112.4446487, -7.4526347], [112.4455947, -7.4516381], [112.4467086, -7.4506868], [112.4474182, -7.4502033], [112.4482955, -7.4498142], [112.4495849, -7.4493087], [112.4506301, -7.4489668], [112.4520721, -7.4485272], [112.4531097, -7.4481128], [112.4542846, -7.4476274], [112.4555175, -7.4472273], [112.4566879, -7.4469694], [112.4568368, -7.4469406], [112.4570999, -7.4468897], [112.4581985, -7.4467658], [112.4590749, -7.4466508], [112.4598083, -7.4465889], [112.4608917, -7.4463543], [112.4614795, -7.4461841], [112.4621887, -7.4459981], [112.4636822, -7.445384], [112.4649142, -7.4451163], [112.4655187, -7.4449768], [112.4664001, -7.4448994], [112.4673385, -7.4449347], [112.4686431, -7.4452909], [112.4694747, -7.4458941], [112.4704437, -7.4469517], [112.4713744, -7.447925], [112.472557, -7.4488333], [112.4734954, -7.4494489], [112.4746856, -7.4501032], [112.4756088, -7.4504455], [112.479309, -7.4533561], [112.4802322, -7.4541701], [112.4817352, -7.4554046], [112.4828338, -7.456292], [112.4842224, -7.4571732], [112.4849823, -7.4577093], [112.4855422, -7.4581593], [112.4867172, -7.4589628], [112.4880599, -7.4597372], [112.488594, -7.4599494], [112.4898376, -7.4601968], [112.491516, -7.460389], [112.4927012, -7.4605208], [112.4944457, -7.4608024], [112.4957351, -7.4611605], [112.497261, -7.4615882], [112.4987945, -7.4619011], [112.4999999, -7.4619158], [112.5002899, -7.4619459], [112.5017165, -7.4622558], [112.5030135, -7.462294], [112.5036315, -7.4622916], [112.5045013, -7.4623312], [112.5051574, -7.4624136], [112.5054855, -7.4624785], [112.5054899, -7.4624805], [112.5062026, -7.4628133], [112.5067977, -7.4631718], [112.5075225, -7.4637416], [112.5078332, -7.4639666], [112.5080184, -7.4641007], [112.5085677, -7.4645866], [112.5091857, -7.4650296], [112.5101241, -7.4656628], [112.5107421, -7.4660424], [112.5111502, -7.4663388], [112.511383, -7.4665063], [112.511991, -7.4668898], [112.5128625, -7.4671039], [112.5136901, -7.468101], [112.5169399, -7.4702371], [112.5195403, -7.4716912], [112.5220915, -7.4728887], [112.5259482, -7.4742682], [112.5421922, -7.479756], [112.5456923, -7.4810268], [112.5549978, -7.4839461], [112.5576591, -7.4850592], [112.5834547, -7.4926497], [112.5847653, -7.4936478], [112.5866146, -7.4939071], [112.5890243, -7.4934256], [112.5907802, -7.493833], [112.5923691, -7.4950003], [112.5940857, -7.4960215], [112.5962315, -7.4983085], [112.5982056, -7.5009571], [112.5986632, -7.5026672], [112.5989621, -7.5035932], [112.5990181, -7.5049451], [112.5988687, -7.5071305], [112.5989116, -7.5083564], [112.5993949, -7.5098791], [112.6008519, -7.512153], [112.6018105, -7.5130406], [112.6031837, -7.5138915], [112.6047287, -7.5147424], [112.6071052, -7.5157796], [112.6098633, -7.517438], [112.6110649, -7.5181028], [112.6115262, -7.5184378], [112.6118577, -7.5187359], [112.6134834, -7.5208691], [112.6140422, -7.5218256], [112.6143479, -7.5226286], [112.6145732, -7.5234955], [112.6147664, -7.524514], [112.6151472, -7.5256334], [112.6157856, -7.5265216], [112.6163542, -7.5271119], [112.6169282, -7.5276225], [112.618883, -7.5284513], [112.6204786, -7.5293996], [112.6217964, -7.530231], [112.6224107, -7.5307814], [112.6230624, -7.5313], [112.6236712, -7.5318813], [112.6254997, -7.533803], [112.626873, -7.5358451], [112.627903, -7.5372066], [112.6297913, -7.5382276], [112.6313362, -7.5390785], [112.6323053, -7.5395563], [112.6333893, -7.5400576], [112.6348276, -7.5409465], [112.6363781, -7.5413168], [112.6382087, -7.5416687], [112.6399193, -7.542482], [112.6412926, -7.5435031], [112.6426659, -7.5440136], [112.6441489, -7.544039], [112.646072, -7.5438247], [112.6473806, -7.5438909], [112.6487255, -7.5442057], [112.649704, -7.5446943], [112.6507339, -7.545375], [112.6515923, -7.5463961], [112.6529655, -7.5480978], [112.6560554, -7.5511609], [112.658738, -7.5535203], [112.6605126, -7.5551128], [112.6628289, -7.5566868], [112.6642486, -7.5575201], [112.6658401, -7.5579678], [112.6679001, -7.5584783], [112.6703033, -7.5586485], [112.6718483, -7.5583081], [112.6728783, -7.5577976], [112.6739082, -7.5569468], [112.6747741, -7.5559412], [112.6761398, -7.554224], [112.6769105, -7.5522728], [112.6779594, -7.551628], [112.6790246, -7.550838], [112.679732, -7.5495726], [112.6811549, -7.5485328], [112.6822883, -7.5478646], [112.6836933, -7.5474702], [112.6848964, -7.5467388], [112.685168, -7.5466655], [112.6860878, -7.5465012], [112.6892229, -7.5461929], [112.6933171, -7.5461788], [112.6955691, -7.5458256], [112.6988714, -7.545545], [112.7015367, -7.5458317], [112.7052772, -7.5448195], [112.7094605, -7.5450166], [112.7194583, -7.5453819], [112.7245848, -7.5455182], [112.7288039, -7.545554], [112.7320022, -7.5450972], [112.7459161, -7.5432879], [112.7528795, -7.5421923], [112.7544027, -7.5420835], [112.757164, -7.542482], [112.7630005, -7.5435031], [112.7655754, -7.5440136], [112.7681503, -7.5440136], [112.7707252, -7.5436733], [112.7733002, -7.5429926], [112.7757034, -7.5426522], [112.7813683, -7.5429926], [112.7900264, -7.542599], [112.7928696, -7.5428224], [112.7947793, -7.5429074], [112.7968178, -7.5428011], [112.7985237, -7.5423651], [112.8001437, -7.5417056], [112.8021929, -7.5411739], [112.8046391, -7.5409079], [112.8112373, -7.5407803], [112.8136299, -7.5400038], [112.8153572, -7.5392274], [112.8177497, -7.5380468], [112.8196488, -7.536611], [112.8214834, -7.5347921], [112.8232108, -7.5328776], [112.8249166, -7.5318034], [112.8271803, -7.5310057], [112.8290901, -7.5307397], [112.8309784, -7.5307397], [112.83321, -7.5312503], [112.8350983, -7.5324415], [112.8366324, -7.5341115], [112.8381238, -7.5357813], [112.8399048, -7.5375469], [112.8409348, -7.5394189], [112.8412781, -7.5407803], [112.841321, -7.541663], [112.8420827, -7.5458643], [112.8431664, -7.5479276], [112.8447113, -7.5501399], [112.8469751, -7.5534689], [112.8492711, -7.5560002], [112.8515134, -7.5574998], [112.8535519, -7.5584889], [112.855526, -7.5589888], [112.859399, -7.5601375], [112.865553, -7.5622525], [112.8657783, -7.5623299], [112.8688902, -7.5639504]], [[112.841321, -7.541663], [112.8435157, -7.5426379], [112.8455542, -7.5429783], [112.847657, -7.5426166], [112.8496097, -7.5419359], [112.8501247, -7.5414041], [112.8502963, -7.5407234], [112.8501676, -7.5384048], [112.8503822, -7.5373837], [112.8516482, -7.5345757], [112.8523563, -7.533895], [112.8534935, -7.5334696], [112.8557251, -7.533193], [112.8573988, -7.533193], [112.858815, -7.5334483], [112.8601025, -7.5333632], [112.8618406, -7.5328527], [112.8630851, -7.5327463], [112.8644155, -7.5332356], [112.8652738, -7.5338312], [112.8665827, -7.5339163], [112.8679345, -7.5335759], [112.8688358, -7.5335547], [112.8698657, -7.5337461], [112.8701073, -7.5337277]], [[112.1912736, -8.1503451], [112.1912726, -8.1495473], [112.1912724, -8.149344], [112.1912616, -8.1492564], [112.1912214, -8.1491781], [112.1911463, -8.1491104], [112.191031, -8.1490772], [112.1909052, -8.1490548]], [[112.1903859, -8.148975], [112.1899085, -8.1489272], [112.1896416, -8.1489325], [112.1894552, -8.148975], [112.1892983, -8.1490652], [112.1891621, -8.1492584], [112.1891361, -8.1493049], [112.1888561, -8.1498045]]]}, "id": "relation/313474"}]}